start=new Date('2023-03-13T00:00:00.000Z').valueOf();
sats=[{"EPHEMERIS_TYPE":"0","MEAN_MOTION_DOT":"0.00025112","ELEMENT_SET_NO":"999","MEAN_MOTION_DDOT":"0.0000000000000","MEAN_ELEMENT_THEORY":"SGP4","EPOCH":"2023-03-12T21:51:35.444160","REF_FRAME":"TEME","RA_OF_ASC_NODE":"274.7972","TLE_LINE2":"2 52461  53.2150 274.7972 0001134  78.1688 281.9432 15.08860634 47417","SEMIMAJOR_AXIS":"6917.817","DECAY_DATE":null,"ECCENTRICITY":"0.00011340","MEAN_ANOMALY":"281.9432","OBJECT_TYPE":"PAYLOAD","CENTER_NAME":"EARTH","BSTAR":"0.00158940000000","TLE_LINE1":"1 52461U 22049L   23071.91082690  .00025112  00000-0  15894-2 0  9993","REV_AT_EPOCH":"4741","MEAN_MOTION":"15.08860634","PERIOD":"95.436","NORAD_CAT_ID":"52461","COUNTRY_CODE":"US","FILE":"3858743","OBJECT_ID":"2022-049L","APOAPSIS":"540.467","TIME_SYSTEM":"UTC","ARG_OF_PERICENTER":"78.1688","PERIAPSIS":"538.898","CLASSIFICATION_TYPE":"U","SITE":"AFETR","RCS_SIZE":"LARGE","GP_ID":"227963421","INCLINATION":"53.2150","OBJECT_NAME":"STARLINK-3900","LAUNCH_DATE":"2022-05-06"},{"REF_FRAME":"TEME","EPOCH":"2023-03-12T01:06:20.098944","RA_OF_ASC_NODE":"288.6876","MEAN_ELEMENT_THEORY":"SGP4","MEAN_MOTION_DDOT":"0.0000000000000","ELEMENT_SET_NO":"999","EPHEMERIS_TYPE":"0","MEAN_MOTION_DOT":"0.00015547","PERIOD":"95.436","MEAN_MOTION":"15.08862433","REV_AT_EPOCH":"4714","BSTAR":"0.00099212000000","TLE_LINE1":"1 52462U 22049M   23071.04606596  .00015547  00000-0  99212-3 0  9993","OBJECT_TYPE":"PAYLOAD","CENTER_NAME":"EARTH","ECCENTRICITY":"0.00012010","MEAN_ANOMALY":"292.0389","SEMIMAJOR_AXIS":"6917.812","DECAY_DATE":null,"TLE_LINE2":"2 52462  53.2149 288.6876 0001201  68.0731 292.0389 15.08862433 47148","OBJECT_ID":"2022-049M","COUNTRY_CODE":"US","FILE":"3858534","NORAD_CAT_ID":"52462","INCLINATION":"53.2149","OBJECT_NAME":"STARLINK-3903","LAUNCH_DATE":"2022-05-06","GP_ID":"227931455","SITE":"AFETR","CLASSIFICATION_TYPE":"U","RCS_SIZE":"LARGE","PERIAPSIS":"538.846","ARG_OF_PERICENTER":"68.0731","TIME_SYSTEM":"UTC","APOAPSIS":"540.508"},{"PERIAPSIS":"538.899","RCS_SIZE":"LARGE","SITE":"AFETR","CLASSIFICATION_TYPE":"U","GP_ID":"227932206","LAUNCH_DATE":"2022-05-06","INCLINATION":"53.2165","OBJECT_NAME":"STARLINK-3885","APOAPSIS":"540.569","TIME_SYSTEM":"UTC","ARG_OF_PERICENTER":"90.8842","FILE":"3858534","COUNTRY_CODE":"US","OBJECT_ID":"2022-049N","NORAD_CAT_ID":"52463","CENTER_NAME":"EARTH","OBJECT_TYPE":"PAYLOAD","TLE_LINE1":"1 52463U 22049N   23070.97978851  .00004788  00000-0  31867-3 0  9998","BSTAR":"0.00031867000000","REV_AT_EPOCH":"4727","MEAN_MOTION":"15.08843775","PERIOD":"95.437","TLE_LINE2":"2 52463  53.2165 278.9744 0001207  90.8842 269.2289 15.08843775 47272","DECAY_DATE":null,"SEMIMAJOR_AXIS":"6917.869","MEAN_ANOMALY":"269.2289","ECCENTRICITY":"0.00012070","MEAN_ELEMENT_THEORY":"SGP4","MEAN_MOTION_DDOT":"0.0000000000000","RA_OF_ASC_NODE":"278.9744","EPOCH":"2023-03-11T23:30:53.727264","REF_FRAME":"TEME","EPHEMERIS_TYPE":"0","MEAN_MOTION_DOT":"0.00004788","ELEMENT_SET_NO":"999"},{"TLE_LINE2":"2 52464  53.2141 288.6671 0000906 102.1336 257.9757 15.08852408 47147","SEMIMAJOR_AXIS":"6917.842","DECAY_DATE":null,"ECCENTRICITY":"0.00009060","MEAN_ANOMALY":"257.9757","OBJECT_TYPE":"PAYLOAD","CENTER_NAME":"EARTH","BSTAR":"0.00062040000000","TLE_LINE1":"1 52464U 22049P   23071.04878765  .00009603  00000-0  62040-3 0  9999","REV_AT_EPOCH":"4714","PERIOD":"95.437","MEAN_MOTION":"15.08852408","EPHEMERIS_TYPE":"0","MEAN_MOTION_DOT":"0.00009603","ELEMENT_SET_NO":"999","MEAN_ELEMENT_THEORY":"SGP4","MEAN_MOTION_DDOT":"0.0000000000000","RA_OF_ASC_NODE":"288.6671","REF_FRAME":"TEME","EPOCH":"2023-03-12T01:10:15.252960","APOAPSIS":"540.334","TIME_SYSTEM":"UTC","ARG_OF_PERICENTER":"102.1336","PERIAPSIS":"539.081","CLASSIFICATION_TYPE":"U","SITE":"AFETR","RCS_SIZE":"LARGE","GP_ID":"227932934","INCLINATION":"53.2141","OBJECT_NAME":"STARLINK-3904","LAUNCH_DATE":"2022-05-06","NORAD_CAT_ID":"52464","COUNTRY_CODE":"US","FILE":"3858534","OBJECT_ID":"2022-049P"},{"CENTER_NAME":"EARTH","OBJECT_TYPE":"PAYLOAD","TLE_LINE1":"1 52465U 22049Q   23071.57227941  .00008250  00000-0  53551-3 0  9996","BSTAR":"0.00053551000000","REV_AT_EPOCH":"4736","MEAN_MOTION":"15.08859912","PERIOD":"95.436","TLE_LINE2":"2 52465  53.2140 276.3194 0001533  62.8315 297.2834 15.08859912 47361","DECAY_DATE":null,"SEMIMAJOR_AXIS":"6917.820","MEAN_ANOMALY":"297.2834","ECCENTRICITY":"0.00015330","MEAN_MOTION_DDOT":"0.0000000000000","MEAN_ELEMENT_THEORY":"SGP4","RA_OF_ASC_NODE":"276.3194","EPOCH":"2023-03-12T13:44:04.941024","REF_FRAME":"TEME","EPHEMERIS_TYPE":"0","MEAN_MOTION_DOT":"0.00008250","ELEMENT_SET_NO":"999","PERIAPSIS":"538.624","RCS_SIZE":"LARGE","SITE":"AFETR","CLASSIFICATION_TYPE":"U","GP_ID":"227933199","LAUNCH_DATE":"2022-05-06","OBJECT_NAME":"STARLINK-3863","INCLINATION":"53.2140","APOAPSIS":"540.745","TIME_SYSTEM":"UTC","ARG_OF_PERICENTER":"62.8315","FILE":"3858534","COUNTRY_CODE":"US","OBJECT_ID":"2022-049Q","NORAD_CAT_ID":"52465"},{"ARG_OF_PERICENTER":"114.9047","APOAPSIS":"539.577","TIME_SYSTEM":"UTC","GP_ID":"227963173","INCLINATION":"53.2138","OBJECT_NAME":"STARLINK-3840","LAUNCH_DATE":"2022-05-06","PERIAPSIS":"538.338","SITE":"AFETR","CLASSIFICATION_TYPE":"U","RCS_SIZE":"LARGE","NORAD_CAT_ID":"52466","OBJECT_ID":"2022-049R","COUNTRY_CODE":"US","FILE":"3858743","ECCENTRICITY":"0.00008960","MEAN_ANOMALY":"245.2038","TLE_LINE2":"2 52466  53.2138 284.8493 0000896 114.9047 245.2038 15.09097822 47271","SEMIMAJOR_AXIS":"6917.092","DECAY_DATE":null,"REV_AT_EPOCH":"4727","MEAN_MOTION":"15.09097822","PERIOD":"95.421","OBJECT_TYPE":"PAYLOAD","CENTER_NAME":"EARTH","BSTAR":"0.00196480000000","TLE_LINE1":"1 52466U 22049R   23071.89855518  .00031343  00000-0  19648-2 0  9996","EPHEMERIS_TYPE":"0","MEAN_MOTION_DOT":"0.00031343","ELEMENT_SET_NO":"999","RA_OF_ASC_NODE":"284.8493","REF_FRAME":"TEME","EPOCH":"2023-03-12T21:33:55.167552","MEAN_MOTION_DDOT":"0.0000000000000","MEAN_ELEMENT_THEORY":"SGP4"},{"BSTAR":"0.00150280000000","TLE_LINE1":"1 52467U 22049S   23071.90255217  .00023715  00000-0  15028-2 0  9991","OBJECT_TYPE":"PAYLOAD","CENTER_NAME":"EARTH","PERIOD":"95.437","MEAN_MOTION":"15.08847908","REV_AT_EPOCH":"4727","SEMIMAJOR_AXIS":"6917.856","DECAY_DATE":null,"TLE_LINE2":"2 52467  53.2137 284.8348 0001171  75.6302 284.4820 15.08847908 47275","ECCENTRICITY":"0.00011710","MEAN_ANOMALY":"284.4820","MEAN_MOTION_DDOT":"0.0000000000000","MEAN_ELEMENT_THEORY":"SGP4","EPOCH":"2023-03-12T21:39:40.507488","REF_FRAME":"TEME","RA_OF_ASC_NODE":"284.8348","ELEMENT_SET_NO":"999","MEAN_MOTION_DOT":"0.00023715","EPHEMERIS_TYPE":"0","CLASSIFICATION_TYPE":"U","SITE":"AFETR","RCS_SIZE":"LARGE","PERIAPSIS":"538.911","INCLINATION":"53.2137","OBJECT_NAME":"STARLINK-3873","LAUNCH_DATE":"2022-05-06","GP_ID":"227964423","TIME_SYSTEM":"UTC","APOAPSIS":"540.531","ARG_OF_PERICENTER":"75.6302","COUNTRY_CODE":"US","FILE":"3858743","OBJECT_ID":"2022-049S","NORAD_CAT_ID":"52467"},{"EPHEMERIS_TYPE":"0","MEAN_MOTION_DOT":"0.00001656","ELEMENT_SET_NO":"999","MEAN_ELEMENT_THEORY":"SGP4","MEAN_MOTION_DDOT":"0.0000000000000","EPOCH":"2023-03-12T14:56:56.622912","RA_OF_ASC_NODE":"286.0916","REF_FRAME":"TEME","TLE_LINE2":"2 52468  53.2143 286.0916 0001129  55.8808 304.2291 15.08831814 47230","DECAY_DATE":null,"SEMIMAJOR_AXIS":"6917.905","MEAN_ANOMALY":"304.2291","ECCENTRICITY":"0.00011290","CENTER_NAME":"EARTH","OBJECT_TYPE":"PAYLOAD","TLE_LINE1":"1 52468U 22049T   23071.62287758  .00001656  00000-0  12211-3 0  9998","BSTAR":"0.00012211000000","REV_AT_EPOCH":"4723","MEAN_MOTION":"15.08831814","PERIOD":"95.438","NORAD_CAT_ID":"52468","FILE":"3858743","COUNTRY_CODE":"US","OBJECT_ID":"2022-049T","APOAPSIS":"540.551","TIME_SYSTEM":"UTC","ARG_OF_PERICENTER":"55.8808","PERIAPSIS":"538.989","RCS_SIZE":"LARGE","SITE":"AFETR","CLASSIFICATION_TYPE":"U","GP_ID":"227964174","LAUNCH_DATE":"2022-05-06","INCLINATION":"53.2143","OBJECT_NAME":"STARLINK-3864"},{"FILE":"3858534","COUNTRY_CODE":"US","OBJECT_ID":"2022-049U","NORAD_CAT_ID":"52469","PERIAPSIS":"538.921","RCS_SIZE":"LARGE","CLASSIFICATION_TYPE":"U","SITE":"AFETR","GP_ID":"227932699","LAUNCH_DATE":"2022-05-06","INCLINATION":"53.2147","OBJECT_NAME":"STARLINK-3828","APOAPSIS":"540.518","TIME_SYSTEM":"UTC","ARG_OF_PERICENTER":"89.7317","MEAN_MOTION_DDOT":"0.0000000000000","MEAN_ELEMENT_THEORY":"SGP4","EPOCH":"2023-03-12T00:49:03.796608","REF_FRAME":"TEME","RA_OF_ASC_NODE":"288.7325","MEAN_MOTION_DOT":"0.00026285","EPHEMERIS_TYPE":"0","ELEMENT_SET_NO":"999","CENTER_NAME":"EARTH","OBJECT_TYPE":"PAYLOAD","TLE_LINE1":"1 52469U 22049U   23071.03407172  .00026285  00000-0  16631-2 0  9992","BSTAR":"0.00166310000000","REV_AT_EPOCH":"4714","MEAN_MOTION":"15.08848446","PERIOD":"95.437","TLE_LINE2":"2 52469  53.2147 288.7325 0001154  89.7317 270.3807 15.08848446 47142","DECAY_DATE":null,"SEMIMAJOR_AXIS":"6917.855","MEAN_ANOMALY":"270.3807","ECCENTRICITY":"0.00011540"},{"NORAD_CAT_ID":"52470","OBJECT_ID":"2022-049V","COUNTRY_CODE":"US","FILE":"3858743","ARG_OF_PERICENTER":"104.0697","APOAPSIS":"540.735","TIME_SYSTEM":"UTC","GP_ID":"227963672","INCLINATION":"53.2147","OBJECT_NAME":"STARLINK-3859","LAUNCH_DATE":"2022-05-06","PERIAPSIS":"538.783","SITE":"AFETR","CLASSIFICATION_TYPE":"U","RCS_SIZE":"LARGE","MEAN_MOTION_DOT":"0.00003969","EPHEMERIS_TYPE":"0","ELEMENT_SET_NO":"999","RA_OF_ASC_NODE":"286.1210","EPOCH":"2023-03-12T14:46:20.025120","REF_FRAME":"TEME","MEAN_ELEMENT_THEORY":"SGP4","MEAN_MOTION_DDOT":"0.0000000000000","ECCENTRICITY":"0.00014110","MEAN_ANOMALY":"256.0452","TLE_LINE2":"2 52470  53.2147 286.1210 0001411 104.0697 256.0452 15.08835481 47239","SEMIMAJOR_AXIS":"6917.894","DECAY_DATE":null,"REV_AT_EPOCH":"4723","PERIOD":"95.438","MEAN_MOTION":"15.08835481","OBJECT_TYPE":"PAYLOAD","CENTER_NAME":"EARTH","BSTAR":"0.00026733000000","TLE_LINE1":"1 52470U 22049V   23071.61550955  .00003969  00000-0  26733-3 0  9995"}];
